[{"OBJECT_NAME":"JILIN-1 KUANFU 01","OBJECT_ID":"2020-003A","EPOCH":"2026-03-09T21:54:33.175008","MEAN_MOTION":15.10079256,"ECCENTRICITY":0.00082994,"INCLINATION":97.5094,"RA_OF_ASC_NODE":144.8213,"ARG_OF_PERICENTER":285.3859,"MEAN_ANOMALY":74.6453,"EPHEMERIS_TYPE":0,"CLASSIFICATION_TYPE":"U","NORAD_CAT_ID":45016,"ELEMENT_SET_NO":999,"REV_AT_EPOCH":34034,"BSTAR":0.00024799476,"MEAN_MOTION_DOT":3.977e-5,"MEAN_MOTION_DDOT":0},{"OBJECT_NAME":"STARLINK-5187","OBJECT_ID":"2022-136Q","EPOCH":"2026-03-09T22:31:43.211712","MEAN_MOTION":15.08836526,"ECCENTRICITY":0.00011237,"INCLINATION":53.2194,"RA_OF_ASC_NODE":342.8557,"ARG_OF_PERICENTER":78.28,"MEAN_ANOMALY":281.8318,"EPHEMERIS_TYPE":0,"CLASSIFICATION_TYPE":"U","NORAD_CAT_ID":54065,"ELEMENT_SET_NO":999,"REV_AT_EPOCH":18688,"BSTAR":7.78517e-6,"MEAN_MOTION_DOT":-1.64e-6,"MEAN_MOTION_DDOT":0}]
